{"type": "FeatureCollection", "features": [ {"type": "Feature", "properties": {"norad_id": 40938, "name": "BEIDOU-3S IGSO-2S (C56)", "group": "gnss", "lat": -6.94941679441436, "lon": 86.9016632770481, "alt_km": 35532.35886402143, "timestamp": "2025-12-17T17:50:19.493507+00:00", "meta": {"OBJECT_NAME": "BEIDOU-3S IGSO-2S (C56)", "OBJECT_ID": "2015-053A", "EPOCH": "2025-12-16T17:14:16.267776", "MEAN_MOTION": 1.00269476, "ECCENTRICITY": 0.00605277, "INCLINATION": 49.5044, "RA_OF_ASC_NODE": 260.9581, "ARG_OF_PERICENTER": 188.7289, "MEAN_ANOMALY": 350.4326, "EPHEMERIS_TYPE": 0, "CLASSIFICATION_TYPE": "U", "NORAD_CAT_ID": 40938, "ELEMENT_SET_NO": 999, "REV_AT_EPOCH": 3752, "BSTAR": 0, "MEAN_MOTION_DOT": -1.34e-06, "MEAN_MOTION_DDOT": 0}, "tle": {"line1": "1 40938U 15053A   25350.71824384 -.00000134  00000+0  00000+0 0  9997", "line2": "2 40938  49.5044 260.9581 0060527 188.7289 350.4326  1.00269476 37521"}}, "geometry": {"type": "Point", "coordinates": [86.9016632770481, -6.94941679441436]}}, {"type": "Feature", "properties": {"norad_id": 41019, "name": "GPS BIIF-11 (PRN 10)", "group": "gnss", "lat": -30.669353885276276, "lon": 15.031303859701914, "alt_km": 20194.947348744583, "timestamp": "2025-12-17T17:50:19.493521+00:00", "meta": {"OBJECT_NAME": "GPS BIIF-11 (PRN 10)", "OBJECT_ID": "2015-062A", "EPOCH": "2025-12-17T07:07:49.899648", "MEAN_MOTION": 2.00567236, "ECCENTRICITY": 0.01109421, "INCLINATION": 56.8354, "RA_OF_ASC_NODE": 37.826, "ARG_OF_PERICENTER": 230.0562, "MEAN_ANOMALY": 129.0226, "EPHEMERIS_TYPE": 0, "CLASSIFICATION_TYPE": "U", "NORAD_CAT_ID": 41019, "ELEMENT_SET_NO": 999, "REV_AT_EPOCH": 7417, "BSTAR": 0, "MEAN_MOTION_DOT": -7.6e-07, "MEAN_MOTION_DDOT": 0}, "tle": {"line1": "1 41019U 15062A   25351.29710532 -.00000076  00000+0  00000+0 0  9996", "line2": "2 41019  56.8354  37.8260 0110942 230.0562 129.0226  2.00567236 74171"}}, "geometry": {"type": "Point", "coordinates": [15.031303859701914, -30.669353885276276]}}, {"type": "Feature", "properties": {"norad_id": 41028, "name": "GSAT-15 (GAGAN/PRN 139)", "group": "gnss", "lat": 0.01995126492197369, "lon": 87.65805505212822, "alt_km": 35795.31614801228, "timestamp": "2025-12-17T17:50:19.493537+00:00", "meta": {"OBJECT_NAME": "GSAT-15 (GAGAN/PRN 139)", "OBJECT_ID": "2015-065A", "EPOCH": "2025-12-17T02:39:38.687616", "MEAN_MOTION": 1.00270744, "ECCENTRICITY": 0.00026292, "INCLINATION": 0.0364, "RA_OF_ASC_NODE": 268.7518, "ARG_OF_PERICENTER": 321.6882, "MEAN_ANOMALY": 348.9574, "EPHEMERIS_TYPE": 0, "CLASSIFICATION_TYPE": "U", "NORAD_CAT_ID": 41028, "ELEMENT_SET_NO": 999, "REV_AT_EPOCH": 3697, "BSTAR": 0, "MEAN_MOTION_DOT": -2.33e-06, "MEAN_MOTION_DDOT": 0}, "tle": {"line1": "1 41028U 15065A   25351.11086444 -.00000233  00000+0  00000+0 0  9993", "line2": "2 41028   0.0364 268.7518 0002629 321.6882 348.9574  1.00270744 36976"}}, "geometry": {"type": "Point", "coordinates": [87.65805505212822, 0.01995126492197369]}}, {"type": "Feature", "properties": {"norad_id": 41174, "name": "GSAT0209 (GALILEO 12)", "group": "gnss", "lat": -20.6261149804176, "lon": 91.37018612007628, "alt_km": 23217.978715140685, "timestamp": "2025-12-17T17:50:19.493551+00:00", "meta": {"OBJECT_NAME": "GSAT0209 (GALILEO 12)", "OBJECT_ID": "2015-079A", "EPOCH": "2025-12-13T16:16:46.046208", "MEAN_MOTION": 1.70474514, "ECCENTRICITY": 0.00024314, "INCLINATION": 55.7133, "RA_OF_ASC_NODE": 106.3552, "ARG_OF_PERICENTER": 349.5598, "MEAN_ANOMALY": 10.4024, "EPHEMERIS_TYPE": 0, "CLASSIFICATION_TYPE": "U", "NORAD_CAT_ID": 41174, "ELEMENT_SET_NO": 999, "REV_AT_EPOCH": 6161, "BSTAR": 0, "MEAN_MOTION_DOT": -1e-08, "MEAN_MOTION_DDOT": 0}, "tle": {"line1": "1 41174U 15079A   25347.67831072 -.00000001  00000+0  00000+0 0  9994", "line2": "2 41174  55.7133 106.3552 0002431 349.5598  10.4024  1.70474514 61616"}}, "geometry": {"type": "Point", "coordinates": [91.37018612007628, -20.6261149804176]}}, {"type": "Feature", "properties": {"norad_id": 41175, "name": "GSAT0208 (GALILEO 11)", "group": "gnss", "lat": -16.169882787621358, "lon": -62.37438858690525, "alt_km": 23229.641619479655, "timestamp": "2025-12-17T17:50:19.493563+00:00", "meta": {"OBJECT_NAME": "GSAT0208 (GALILEO 11)", "OBJECT_ID": "2015-079B", "EPOCH": "2025-12-12T17:24:26.771040", "MEAN_MOTION": 1.70474307, "ECCENTRICITY": 0.00018806, "INCLINATION": 55.7111, "RA_OF_ASC_NODE": 106.3784, "ARG_OF_PERICENTER": 358.3144, "MEAN_ANOMALY": 1.6545, "EPHEMERIS_TYPE": 0, "CLASSIFICATION_TYPE": "U", "NORAD_CAT_ID": 41175, "ELEMENT_SET_NO": 999, "REV_AT_EPOCH": 6201, "BSTAR": 0, "MEAN_MOTION_DOT": 4e-08, "MEAN_MOTION_DDOT": 0}, "tle": {"line1": "1 41175U 15079B   25346.72530985  .00000004  00000+0  00000+0 0  9991", "line2": "2 41175  55.7111 106.3784 0001880 358.3144   1.6545  1.70474307 62017"}}, "geometry": {"type": "Point", "coordinates": [-62.37438858690525, -16.169882787621358]}}, {"type": "Feature", "properties": {"norad_id": 41241, "name": "IRNSS-1E", "group": "gnss", "lat": 21.913232146222352, "lon": 100.89418961274872, "alt_km": 35858.63590298676, "timestamp": "2025-12-17T17:50:19.493574+00:00", "meta": {"OBJECT_NAME": "IRNSS-1E", "OBJECT_ID": "2016-003A", "EPOCH": "2025-12-16T15:11:45.803328", "MEAN_MOTION": 1.00272235, "ECCENTRICITY": 0.00217171, "INCLINATION": 32.8339, "RA_OF_ASC_NODE": 62.3964, "ARG_OF_PERICENTER": 188.1276, "MEAN_ANOMALY": 174.7175, "EPHEMERIS_TYPE": 0, "CLASSIFICATION_TYPE": "U", "NORAD_CAT_ID": 41241, "ELEMENT_SET_NO": 999, "REV_AT_EPOCH": 3625, "BSTAR": 0, "MEAN_MOTION_DOT": -3.06e-06, "MEAN_MOTION_DDOT": 0}, "tle": {"line1": "1 41241U 16003A   25350.63316902 -.00000306  00000+0  00000+0 0  9995", "line2": "2 41241  32.8339  62.3964 0021717 188.1276 174.7175  1.00272235 36253"}}, "geometry": {"type": "Point", "coordinates": [100.89418961274872, 21.913232146222352]}}, {"type": "Feature", "properties": {"norad_id": 41328, "name": "GPS BIIF-12 (PRN 32)", "group": "gnss", "lat": -54.609306329696516, "lon": -7.38856037558521, "alt_km": 19955.667549288668, "timestamp": "2025-12-17T17:50:19.493586+00:00", "meta": {"OBJECT_NAME": "GPS BIIF-12 (PRN 32)", "OBJECT_ID": "2016-007A", "EPOCH": "2025-12-14T21:16:57.823104", "MEAN_MOTION": 2.00560623, "ECCENTRICITY": 0.00922757, "INCLINATION": 55.4074, "RA_OF_ASC_NODE": 96.7717, "ARG_OF_PERICENTER": 243.6198, "MEAN_ANOMALY": 115.4149, "EPHEMERIS_TYPE": 0, "CLASSIFICATION_TYPE": "U", "NORAD_CAT_ID": 41328, "ELEMENT_SET_NO": 999, "REV_AT_EPOCH": 7214, "BSTAR": 0, "MEAN_MOTION_DOT": -3.3e-07, "MEAN_MOTION_DDOT": 0}, "tle": {"line1": "1 41328U 16007A   25348.88678036 -.00000033  00000+0  00000+0 0  9995", "line2": "2 41328  55.4074  96.7717 0092275 243.6198 115.4149  2.00560623 72143"}}, "geometry": {"type": "Point", "coordinates": [-7.38856037558521, -54.609306329696516]}}, {"type": "Feature", "properties": {"norad_id": 41330, "name": "COSMOS 2514 (751)", "group": "gnss", "lat": 41.883269839923656, "lon": -16.212569766337978, "alt_km": 19155.111472751698, "timestamp": "2025-12-17T17:50:19.493598+00:00", "meta": {"OBJECT_NAME": "COSMOS 2514 (751)", "OBJECT_ID": "2016-008A", "EPOCH": "2025-12-17T05:05:28.400064", "MEAN_MOTION": 2.13102689, "ECCENTRICITY": 0.00119109, "INCLINATION": 65.1312, "RA_OF_ASC_NODE": 319.2508, "ARG_OF_PERICENTER": 220.1411, "MEAN_ANOMALY": 139.7633, "EPHEMERIS_TYPE": 0, "CLASSIFICATION_TYPE": "U", "NORAD_CAT_ID": 41330, "ELEMENT_SET_NO": 999, "REV_AT_EPOCH": 7674, "BSTAR": 0, "MEAN_MOTION_DOT": -6.8e-07, "MEAN_MOTION_DDOT": 0}, "tle": {"line1": "1 41330U 16008A   25351.21213426 -.00000068  00000+0  00000+0 0  9996", "line2": "2 41330  65.1312 319.2508 0011910 220.1411 139.7633  2.13102689 76740"}}, "geometry": {"type": "Point", "coordinates": [-16.212569766337978, 41.883269839923656]}}, {"type": "Feature", "properties": {"norad_id": 41384, "name": "IRNSS-1F", "group": "gnss", "lat": -4.695378543888136, "lon": 26.896069326892256, "alt_km": 35809.72349211655, "timestamp": "2025-12-17T17:50:19.493610+00:00", "meta": {"OBJECT_NAME": "IRNSS-1F", "OBJECT_ID": "2016-015A", "EPOCH": "2025-12-17T01:29:42.872928", "MEAN_MOTION": 1.00274775, "ECCENTRICITY": 0.00226198, "INCLINATION": 4.8917, "RA_OF_ASC_NODE": 101.1916, "ARG_OF_PERICENTER": 181.2146, "MEAN_ANOMALY": 218.3548, "EPHEMERIS_TYPE": 0, "CLASSIFICATION_TYPE": "U", "NORAD_CAT_ID": 41384, "ELEMENT_SET_NO": 999, "REV_AT_EPOCH": 3584, "BSTAR": 0, "MEAN_MOTION_DOT": 1.8e-06, "MEAN_MOTION_DDOT": 0}, "tle": {"line1": "1 41384U 16015A   25351.06230177  .00000180  00000+0  00000+0 0  9992", "line2": "2 41384   4.8917 101.1916 0022619 181.2146 218.3548  1.00274775 35847"}}, "geometry": {"type": "Point", "coordinates": [26.896069326892256, -4.695378543888136]}}, {"type": "Feature", "properties": {"norad_id": 41434, "name": "BEIDOU-2 IGSO-6 (C13)", "group": "gnss", "lat": 39.70782167011398, "lon": 68.55344825956786, "alt_km": 36033.76417674581, "timestamp": "2025-12-17T17:50:19.493623+00:00", "meta": {"OBJECT_NAME": "BEIDOU-2 IGSO-6 (C13)", "OBJECT_ID": "2016-021A", "EPOCH": "2025-12-11T15:29:12.615360", "MEAN_MOTION": 1.00293077, "ECCENTRICITY": 0.00608616, "INCLINATION": 59.9644, "RA_OF_ASC_NODE": 39.9082, "ARG_OF_PERICENTER": 229.9753, "MEAN_ANOMALY": 135.9177, "EPHEMERIS_TYPE": 0, "CLASSIFICATION_TYPE": "U", "NORAD_CAT_ID": 41434, "ELEMENT_SET_NO": 999, "REV_AT_EPOCH": 3560, "BSTAR": 0, "MEAN_MOTION_DOT": -1.62e-06, "MEAN_MOTION_DDOT": 0}, "tle": {"line1": "1 41434U 16021A   25345.64528490 -.00000162  00000+0  00000+0 0  9991", "line2": "2 41434  59.9644  39.9082 0060861 229.9753 135.9177  1.00293077 35600"}}, "geometry": {"type": "Point", "coordinates": [68.55344825956786, 39.70782167011398]}}]}